[{"OBJECT_NAME":"ICEYE-X4","OBJECT_ID":"2019-038D","EPOCH":"2026-03-09T23:53:58.416000","MEAN_MOTION":15.26985132,"ECCENTRICITY":0.00122769,"INCLINATION":97.8888,"RA_OF_ASC_NODE":96.1923,"ARG_OF_PERICENTER":293.9914,"MEAN_ANOMALY":66.0038,"EPHEMERIS_TYPE":0,"CLASSIFICATION_TYPE":"U","NORAD_CAT_ID":44390,"ELEMENT_SET_NO":999,"REV_AT_EPOCH":36665,"BSTAR":0.00049915294,"MEAN_MOTION_DOT":0.00013179,"MEAN_MOTION_DDOT":0},{"OBJECT_NAME":"STARLINK-36465","OBJECT_ID":"2026-005V","EPOCH":"2026-03-09T11:47:45.416832","MEAN_MOTION":15.27584139,"ECCENTRICITY":0.00015869,"INCLINATION":42.9967,"RA_OF_ASC_NODE":239.3225,"ARG_OF_PERICENTER":282.7988,"MEAN_ANOMALY":77.2686,"EPHEMERIS_TYPE":0,"CLASSIFICATION_TYPE":"U","NORAD_CAT_ID":67423,"ELEMENT_SET_NO":999,"REV_AT_EPOCH":866,"BSTAR":0.00091952603,"MEAN_MOTION_DOT":0.00025131,"MEAN_MOTION_DDOT":0}]
